[{"OBJECT_NAME":"OBJECT B","OBJECT_ID":"2024-174B","EPOCH":"2026-03-09T23:26:11.570784","MEAN_MOTION":15.09493991,"ECCENTRICITY":0.00195829,"INCLINATION":97.4508,"RA_OF_ASC_NODE":75.153,"ARG_OF_PERICENTER":270.277,"MEAN_ANOMALY":89.6216,"EPHEMERIS_TYPE":0,"CLASSIFICATION_TYPE":"U","NORAD_CAT_ID":61239,"ELEMENT_SET_NO":999,"REV_AT_EPOCH":8042,"BSTAR":0.00031274192,"MEAN_MOTION_DOT":4.97e-5,"MEAN_MOTION_DDOT":0},{"OBJECT_NAME":"STARLINK-34744","OBJECT_ID":"2025-158W","EPOCH":"2026-03-09T15:18:26.897184","MEAN_MOTION":15.05645725,"ECCENTRICITY":0.0002312,"INCLINATION":97.603,"RA_OF_ASC_NODE":293.9583,"ARG_OF_PERICENTER":79.495,"MEAN_ANOMALY":280.6538,"EPHEMERIS_TYPE":0,"CLASSIFICATION_TYPE":"U","NORAD_CAT_ID":64952,"ELEMENT_SET_NO":999,"REV_AT_EPOCH":3534,"BSTAR":0.00023756,"MEAN_MOTION_DOT":3.368e-5,"MEAN_MOTION_DDOT":0}]
